{
"type": "FeatureCollection",
"name": "garden-geometry",
"crs": { "type": "name", "properties": { "name": "urn:ogc:def:crs:OGC:1.3:CRS84" } },
"features": [
{ "type": "Feature", "properties": { "Shape_Leng": 0.0006085406808, "Shape_Area": 2.5825648278800001e-08 }, "geometry": { "type": "Polygon", "coordinates": [ [ [ -122.257158189998449, 47.734479101729221, 87.7889765 ], [ -122.257163016659831, 47.734486938421526, 87.77597650000007 ], [ -122.257167317217863, 47.734495357874493, 87.80397650000009 ], [ -122.257170585354174, 47.734504200008871, 87.868976500000144 ], [ -122.257172490118307, 47.734512747165581, 88.035976500000061 ], [ -122.257168314566059, 47.734536251846578, 88.3269765 ], [ -122.25716376219782, 47.734549905353902, 88.472976499999959 ], [ -122.25715965679268, 47.734556504579075, 88.529976499999975 ], [ -122.257094320146734, 47.734627864884089, 88.891976500000055 ], [ -122.257086005015083, 47.734632568338384, 88.944976499999939 ], [ -122.257076447919701, 47.734635687187279, 88.950976500000024 ], [ -122.257064993254801, 47.734637297873064, 89.023976500000117 ], [ -122.257032332576046, 47.734639217925633, 88.889976500000103 ], [ -122.257022545254245, 47.734638672936455, 88.829976500000157 ], [ -122.257013304720203, 47.734636637770677, 88.824976500000048 ], [ -122.257007520280808, 47.734633154696382, 88.812976500000104 ], [ -122.257007727124858, 47.734627947621732, 88.746976500000073 ], [ -122.257013832622249, 47.734497556716917, 89.004976500000112 ], [ -122.257014946882236, 47.734490985370712, 88.955976500000133 ], [ -122.257017045000566, 47.734484118147577, 88.94197650000001 ], [ -122.257020482209441, 47.73447680306208, 89.205976500000133 ], [ -122.257025278293952, 47.734469922349092, 89.612976500000059 ], [ -122.25703367256591, 47.734460142221849, 89.619976500000121 ], [ -122.257041133341602, 47.734454203099062, 89.2689765 ], [ -122.257077744742105, 47.734425309680375, 88.323976500000072 ], [ -122.257087266763904, 47.734420637702328, 87.664976499999966 ], [ -122.257100295242424, 47.734426983318656, 88.072976500000095 ], [ -122.257118072141282, 47.734438418198522, 87.598976499999935 ], [ -122.257135908395412, 47.734452231785099, 87.488976500000035 ], [ -122.257142727055168, 47.734458062089971, 87.655976499999952 ], [ -122.257158189998449, 47.734479101729221, 87.7889765 ] ] ] } }
]
}
